[{"OBJECT_NAME":"STARLINK-5180","OBJECT_ID":"2023-010BB","EPOCH":"2026-03-09T21:30:38.039904","MEAN_MOTION":14.98332205,"ECCENTRICITY":0.00028053,"INCLINATION":70.0011,"RA_OF_ASC_NODE":3.9191,"ARG_OF_PERICENTER":271.0284,"MEAN_ANOMALY":89.0554,"EPHEMERIS_TYPE":0,"CLASSIFICATION_TYPE":"U","NORAD_CAT_ID":55318,"ELEMENT_SET_NO":999,"REV_AT_EPOCH":17467,"BSTAR":-2.594842e-6,"MEAN_MOTION_DOT":-1.24e-6,"MEAN_MOTION_DDOT":0},{"OBJECT_NAME":"NOAA 16 DEB","OBJECT_ID":"2000-055NX","EPOCH":"2026-03-08T23:11:13.556832","MEAN_MOTION":15.01016664,"ECCENTRICITY":0.00157984,"INCLINATION":98.8636,"RA_OF_ASC_NODE":259.6913,"ARG_OF_PERICENTER":295.8562,"MEAN_ANOMALY":64.1029,"EPHEMERIS_TYPE":0,"CLASSIFICATION_TYPE":"U","NORAD_CAT_ID":41658,"ELEMENT_SET_NO":999,"REV_AT_EPOCH":9741,"BSTAR":0.010110988,"MEAN_MOTION_DOT":0.00131742,"MEAN_MOTION_DDOT":0}]
